NORAD_CAT_ID,OBJECT_NAME,OBJECT_TYPE,EPOCH,MEAN_MOTION,ECCENTRICITY,INCLINATION,RA_OF_ASC_NODE,ARG_OF_PERICENTER,MEAN_ANOMALY,BSTAR,MEAN_MOTION_DOT,MEAN_MOTION_DDOT,TLE_LINE0,TLE_LINE1,TLE_LINE2,SEMIMAJOR_AXIS,PERIOD,APOGEE,PERIGEE,DECAYED
52282.0,STARLINK-3783,PAYLOAD,2022-09-23 12:26:26,15.08825688,0.0001467,53.218,9.708,53.5839,306.5288,-3.0097e-05,-7.67e-06,0.0,0 STARLINK-3783,1 52282U 22041X   22266.51835762 -.00000767  00000-0 -30097-4 0  9998,2 52282  53.2180   9.7080 0001467  53.5839 306.5288 15.08825688 23801,6917.924,95.438,540.804,538.774,0.0
52282.0,STARLINK-3783,PAYLOAD,2022-09-23 15:37:12,15.08825231,0.0001679,53.2172,9.1138,50.0431,310.0708,-1.1158e-05,-4.66e-06,0.0,0 STARLINK-3783,1 52282U 22041X   22266.65083888 -.00000466  00000-0 -11158-4 0  9990,2 52282  53.2172   9.1138 0001679  50.0431 310.0708 15.08825231 25044,6917.926,95.438,540.952,538.629,0.0
52282.0,STARLINK-3783,PAYLOAD,2022-09-23 23:34:07,15.08842642,0.0002245,53.2176,7.627000000000002,46.5359,313.582,-0.00014073,-2.528e-05,0.0,0 STARLINK-3783,1 52282U 22041X   22266.98203586 -.00002528  00000-0 -14073-3 0  9994,2 52282  53.2176   7.6270 0002245  46.5359 313.5820 15.08842642 25090,6917.871999999999,95.437,541.29,538.184,0.0
52282.0,STARLINK-3783,PAYLOAD,2022-09-24 12:17:13,15.08810411,0.0001821999999999,53.2176,5.247999999999998,59.2664,300.8507,0.00020426,2.962e-05,0.0,0 STARLINK-3783,1 52282U 22041X   22267.51196390  .00002962  00000-0  20426-3 0  9997,2 52282  53.2176   5.2480 0001822  59.2664 300.8507 15.08810411 23950,6917.971,95.439,541.096,538.575,0.0
52282.0,STARLINK-3783,PAYLOAD,2022-09-24 17:03:22,15.08837314,0.0001742,53.2169,4.3557,44.1667,315.9464,-0.00014369,-2.574e-05,0.0,0 STARLINK-3783,1 52282U 22041X   22267.71068186 -.00002574  00000-0 -14369-3 0  9990,2 52282  53.2169   4.3557 0001742  44.1667 315.9464 15.08837314 25204,6917.889,95.438,540.9590000000002,538.549,0.0
52282.0,STARLINK-3783,PAYLOAD,2022-09-25 12:07:59,15.08839964,0.0001823,53.2168,0.7871,42.7655,317.3479,0.00012549,1.7100000000000002e-05,0.0,0 STARLINK-3783,1 52282U 22041X   22268.50555345  .00001710  00000-0  12549-3 0  9993,2 52282  53.2168   0.7871 0001823  42.7655 317.3479 15.08839964 25321,6917.88,95.438,541.007,538.484,0.0
52282.0,STARLINK-3783,PAYLOAD,2022-09-25 15:18:45,15.08843402,0.0001815,53.2169,0.1924,43.2361,316.8773,0.00014721,2.056e-05,0.0,0 STARLINK-3783,1 52282U 22041X   22268.63803043  .00002056  00000-0  14721-3 0  9996,2 52282  53.2169   0.1924 0001815  43.2361 316.8773 15.08843402 24126,6917.87,95.437,540.991,538.479,0.0
52282.0,STARLINK-3783,PAYLOAD,2022-09-26 08:48:01,15.088284,0.0001839,53.2171,356.9221,47.6661,312.4487,-1.5474e-05,-5.34e-06,0.0,0 STARLINK-3783,1 52282U 22041X   22269.36668730 -.00000534  00000-0 -15474-4 0  9997,2 52282  53.2171 356.9221 0001839  47.6661 312.4487 15.08828400 25450,6917.916,95.438,541.053,538.509,0.0
52282.0,STARLINK-3783,PAYLOAD,2022-09-26 15:09:34,15.08826753,0.0001874,53.2172,355.7338,48.7151,311.4002,-2.6007e-05,-7.02e-06,0.0,0 STARLINK-3783,1 52282U 22041X   22269.63165053 -.00000702  00000-0 -26007-4 0  9998,2 52282  53.2172 355.7338 0001874  48.7151 311.4002 15.08826753 24272,6917.920999999999,95.438,541.082,538.489,0.0
52282.0,STARLINK-3783,PAYLOAD,2022-09-27 11:49:33,15.0885147,0.0001879,53.2175,351.867,50.715,309.4009,7.9053e-06,-1.62e-06,0.0,0 STARLINK-3783,1 52282U 22041X   22270.49275383 -.00000162  00000-0  79053-5 0  9991,2 52282  53.2175 351.8670 0001879  50.7150 309.4009 15.08851470 25626,6917.845,95.437,541.01,538.41,0.0
52282.0,STARLINK-3783,PAYLOAD,2022-09-27 15:00:19,15.08856538,0.0001843,53.2177,351.2723,51.7515,308.3643,4.7449e-05,4.67e-06,0.0,0 STARLINK-3783,1 52282U 22041X   22270.62522809  .00000467  00000-0  47449-4 0  9994,2 52282  53.2177 351.2723 0001843  51.7515 308.3643 15.08856538 24427,6917.83,95.437,540.97,538.42,0.0
52282.0,STARLINK-3783,PAYLOAD,2022-09-28 11:40:19,15.08852123,0.0001817,53.2172,347.4057,46.4694,313.6449,0.00015688,2.21e-05,0.0,0 STARLINK-3783,1 52282U 22041X   22271.48633881  .00002210  00000-0  15688-3 0  9999,2 52282  53.2172 347.4057 0001817  46.4694 313.6449 15.08852123 24552,6917.843000000003,95.437,540.965,538.451,0.0
52282.0,STARLINK-3783,PAYLOAD,2022-09-28 14:51:05,15.08855069,0.0001843,53.217,346.8106,44.9046,315.2095,0.00017094,2.435e-05,0.0,0 STARLINK-3783,1 52282U 22041X   22271.61881510  .00002435  00000-0  17094-3 0  9990,2 52282  53.2170 346.8106 0001843  44.9046 315.2095 15.08855069 24570,6917.834,95.437,540.974,538.424,0.0
52282.0,STARLINK-3783,PAYLOAD,2022-09-29 11:31:09,15.08827321,0.0001823,53.2164,342.9444,39.6191,320.4934,-0.00026921,-4.569e-05,0.0,0 STARLINK-3783,1 52282U 22041X   22272.47996653 -.00004569  00000-0 -26921-3 0  9991,2 52282  53.2164 342.9444 0001823  39.6191 320.4934 15.08827321 25925,6917.919,95.438,541.045,538.523,0.0
52282.0,STARLINK-3783,PAYLOAD,2022-09-29 16:17:18,15.08829154,0.0001853,53.2167,342.0529,40.6341,319.4789,-0.00023894,-4.088e-05,0.0,0 STARLINK-3783,1 52282U 22041X   22272.67868540 -.00004088  00000-0 -23894-3 0  9998,2 52282  53.2167 342.0529 0001853  40.6341 319.4789 15.08829154 24735,6917.9140000000025,95.438,541.06,538.497,0.0
52282.0,STARLINK-3783,PAYLOAD,2022-09-30 11:21:55,15.08841543,0.0001923,53.2167,338.4849,39.857,320.2563,-0.0001085,-2.015e-05,0.0,0 STARLINK-3783,1 52282U 22041X   22273.47355535 -.00002015  00000-0 -10850-3 0  9998,2 52282  53.2167 338.4849 0001923  39.8570 320.2563 15.08841543 26076,6917.876,95.437,541.071,538.41,0.0
52282.0,STARLINK-3783,PAYLOAD,2022-09-30 16:08:04,15.08845938,0.0001919,53.2168,337.5924,40.6808,319.4328,-6.4593e-05,-1.316e-05,0.0,0 STARLINK-3783,1 52282U 22041X   22273.67227099 -.00001316  00000-0 -64593-4 0  9990,2 52282  53.2168 337.5924 0001919  40.6808 319.4328 15.08845938 24888,6917.861999999999,95.437,541.055,538.4,0.0
52282.0,STARLINK-3783,PAYLOAD,2022-10-01 11:12:41,15.08829709,0.0001915,53.2167,334.0244,39.1916,320.9215,0.00020192,2.926e-05,0.0,0 STARLINK-3783,1 52282U 22041X   22274.46715198  .00002926  00000-0  20192-3 0  9992,2 52282  53.2167 334.0244 0001915  39.1916 320.9215 15.08829709 25008,6917.9119999999975,95.438,541.102,538.452,0.0
52282.0,STARLINK-3783,PAYLOAD,2022-10-01 20:45:00,15.0883854,0.0001932,53.2166,332.2403,39.5947,320.5186,0.00019369,2.796e-05,0.0,0 STARLINK-3783,1 52282U 22041X   22274.86458791  .00002796  00000-0  19369-3 0  9998,2 52282  53.2166 332.2403 0001932  39.5947 320.5186 15.08838540 26288,6917.885,95.438,541.086,538.413,0.0
52282.0,STARLINK-3783,PAYLOAD,2022-10-02 12:38:53,15.08828319,0.0002029,53.2176,329.2676,43.4702,316.645,-3.9154e-05,-9.11e-06,0.0,0 STARLINK-3783,1 52282U 22041X   22275.52700616 -.00000911  00000-0 -39154-4 0  9992,2 52282  53.2176 329.2676 0002029  43.4702 316.6450 15.08828319 26382,6917.916,95.438,541.185,538.377,0.0
52282.0,STARLINK-3783,PAYLOAD,2022-10-02 20:35:48,15.08837183,0.0002020999999999,53.2167,327.7796,40.817,319.2973,-6.0801e-06,-3.85e-06,0.0,0 STARLINK-3783,1 52282U 22041X   22275.85820009 -.00000385  00000-0 -60801-5 0  9996,2 52282  53.2167 327.7796 0002021  40.8170 319.2973 15.08837183 25219,6917.889,95.438,541.1519999999998,538.356,0.0
52282.0,STARLINK-3783,PAYLOAD,2022-10-03 12:29:39,15.08837864,0.0002029999999999,53.2167,324.8059,41.2085,318.906,-3.1924e-05,-7.96e-06,0.0,0 STARLINK-3783,1 52282U 22041X   22276.52060033 -.00000796  00000-0 -31924-4 0  9993,2 52282  53.2167 324.8059 0002030  41.2085 318.9060 15.08837864 25319,6917.887,95.438,541.156,538.3480000000002,0.0
52282.0,STARLINK-3783,PAYLOAD,2022-10-03 15:40:25,15.08841123,0.0002018,53.2163,324.2106,40.2891,319.825,-5.5446e-06,-3.76e-06,0.0,0 STARLINK-3783,1 52282U 22041X   22276.65307728 -.00000376  00000-0 -55446-5 0  9992,2 52282  53.2163 324.2106 0002018  40.2891 319.8250 15.08841123 25338,6917.877,95.437,541.138,538.346,0.0
52282.0,STARLINK-3783,PAYLOAD,2022-10-04 02:48:07,15.08839907,0.0002044999999999,53.2162,322.1289,39.442,320.6721,0.00010532,1.388e-05,0.0,0 STARLINK-3783,1 52282U 22041X   22277.11675213  .00001388  00000-0  10532-3 0  9998,2 52282  53.2162 322.1289 0002045  39.4420 320.6721 15.08839907 26627,6917.880999999999,95.438,541.16,538.331,0.0
52282.0,STARLINK-3783,PAYLOAD,2022-10-04 09:09:39,15.08839894,0.0002079,53.2161,320.9393,40.2103,319.9042,0.00012057,1.631e-05,0.0,0 STARLINK-3783,1 52282U 22041X   22277.38171168  .00001631  00000-0  12057-3 0  9992,2 52282  53.2161 320.9393 0002079  40.2103 319.9042 15.08839894 25444,6917.880999999999,95.438,541.184,538.307,0.0
52282.0,STARLINK-3783,PAYLOAD,2022-10-04 20:17:22,15.08836307,0.0002029999999999,53.2157,318.858,40.0092,320.1049,6.6122e-05,7.64e-06,0.0,0 STARLINK-3783,1 52282U 22041X   22277.84539601  .00000764  00000-0  66122-4 0  9992,2 52282  53.2157 318.8580 0002030  40.0092 320.1049 15.08836307 25510,6917.892,95.438,541.161,538.352,0.0
52282.0,STARLINK-3783,PAYLOAD,2022-10-05 02:38:55,15.08833339,0.0002099,53.2159,317.6683,44.6093,315.5068,-2.1877e-05,-6.36e-06,0.0,0 STARLINK-3783,1 52282U 22041X   22278.11036180 -.00000636  00000-0 -21877-4 0  9995,2 52282  53.2159 317.6683 0002099  44.6093 315.5068 15.08833339 26779,6917.901,95.438,541.2180000000002,538.314,0.0
52282.0,STARLINK-3783,PAYLOAD,2022-10-05 09:00:27,15.08837205,0.000214,53.2158,316.478,48.0214,312.096,2.5735e-05,1.21e-06,0.0,0 STARLINK-3783,1 52282U 22041X   22278.37531830  .00000121  00000-0  25735-4 0  9999,2 52282  53.2158 316.4780 0002140  48.0214 312.0960 15.08837205 26817,6917.889,95.438,541.234,538.274,0.0
52282.0,STARLINK-3783,PAYLOAD,2022-10-06 08:51:15,15.08834227,0.0002150999999999,53.2144,312.0171,44.1526,315.9638,-8.256600000000001e-05,-1.602e-05,0.0,0 STARLINK-3783,1 52282U 22041X   22279.36892623 -.00001602  00000-0 -82566-4 0  9991,2 52282  53.2144 312.0171 0002151  44.1526 315.9638 15.08834227 25749,6917.898,95.438,541.251,538.275,0.0
